{"type": "FeatureCollection", "features": [{"type": "Feature", "properties": {"norad_id": 32275, "name": "COSMOS 2433 (720)", "group": "glo-ops", "lat": 60.18253577203642, "lon": 14.358696688955478, "alt_km": 19137.425588064496, "timestamp": "2025-12-09T21:34:11.668590+00:00", "meta": {"OBJECT_NAME": "COSMOS 2433 (720)", "OBJECT_ID": "2007-052A", "EPOCH": "2025-12-09T08:02:51.661824", "MEAN_MOTION": 2.13103784, "ECCENTRICITY": 0.00055818, "INCLINATION": 65.6852, "RA_OF_ASC_NODE": 322.3203, "ARG_OF_PERICENTER": 252.1603, "MEAN_ANOMALY": 107.7768, "EPHEMERIS_TYPE": 0, "CLASSIFICATION_TYPE": "U", "NORAD_CAT_ID": 32275, "ELEMENT_SET_NO": 999, "REV_AT_EPOCH": 14101, "BSTAR": 0, "MEAN_MOTION_DOT": -4.9e-07, "MEAN_MOTION_DDOT": 0}, "tle": {"line1": "1 32275U 07052A   25343.33532016 -.00000049  00000+0  00000+0 0  9995", "line2": "2 32275  65.6852 322.3203 0005581 252.1603 107.7768  2.13103784141018"}}, "geometry": {"type": "Point", "coordinates": [14.358696688955478, 60.18253577203642]}}, {"type": "Feature", "properties": {"norad_id": 32276, "name": "COSMOS 2432 (719)", "group": "glo-ops", "lat": 15.248348909988064, "lon": -30.511982141037826, "alt_km": 19116.40711040175, "timestamp": "2025-12-09T21:34:11.668625+00:00", "meta": {"OBJECT_NAME": "COSMOS 2432 (719)", "OBJECT_ID": "2007-052B", "EPOCH": "2025-12-09T13:28:48.375264", "MEAN_MOTION": 2.13102958, "ECCENTRICITY": 0.00112506, "INCLINATION": 65.7007, "RA_OF_ASC_NODE": 322.4368, "ARG_OF_PERICENTER": 311.4097, "MEAN_ANOMALY": 166.6519, "EPHEMERIS_TYPE": 0, "CLASSIFICATION_TYPE": "U", "NORAD_CAT_ID": 32276, "ELEMENT_SET_NO": 999, "REV_AT_EPOCH": 14104, "BSTAR": 0, "MEAN_MOTION_DOT": -4.9e-07, "MEAN_MOTION_DDOT": 0}, "tle": {"line1": "1 32276U 07052B   25343.56167101 -.00000049  00000+0  00000+0 0  9990", "line2": "2 32276  65.7007 322.4368 0011250 311.4097 166.6519  2.13102958141044"}}, "geometry": {"type": "Point", "coordinates": [-30.511982141037826, 15.248348909988064]}}, {"type": "Feature", "properties": {"norad_id": 32393, "name": "COSMOS 2434 (721)", "group": "glo-ops", "lat": -33.08475531779552, "lon": -179.9712392663286, "alt_km": 19137.744243141806, "timestamp": "2025-12-09T21:34:11.668641+00:00", "meta": {"OBJECT_NAME": "COSMOS 2434 (721)", "OBJECT_ID": "2007-065A", "EPOCH": "2025-12-09T05:35:23.361792", "MEAN_MOTION": 2.13101149, "ECCENTRICITY": 0.00042885, "INCLINATION": 64.3147, "RA_OF_ASC_NODE": 198.3216, "ARG_OF_PERICENTER": 70.9906, "MEAN_ANOMALY": 101.028, "EPHEMERIS_TYPE": 0, "CLASSIFICATION_TYPE": "U", "NORAD_CAT_ID": 32393, "ELEMENT_SET_NO": 999, "REV_AT_EPOCH": 13972, "BSTAR": 0, "MEAN_MOTION_DOT": 4.5e-07, "MEAN_MOTION_DDOT": 0}, "tle": {"line1": "1 32393U 07065A   25343.23290928  .00000045  00000+0  00000+0 0  9997", "line2": "2 32393  64.3147 198.3216 0004288  70.9906 101.0280  2.13101149139726"}}, "geometry": {"type": "Point", "coordinates": [-179.9712392663286, -33.08475531779552]}}, {"type": "Feature", "properties": {"norad_id": 32395, "name": "COSMOS 2436 (723)", "group": "glo-ops", "lat": 63.64623913234358, "lon": -57.82319060680734, "alt_km": 19120.56806609911, "timestamp": "2025-12-09T21:34:11.668655+00:00", "meta": {"OBJECT_NAME": "COSMOS 2436 (723)", "OBJECT_ID": "2007-065C", "EPOCH": "2025-12-08T02:01:11.627904", "MEAN_MOTION": 2.13100022, "ECCENTRICITY": 0.00177472, "INCLINATION": 64.3236, "RA_OF_ASC_NODE": 198.4308, "ARG_OF_PERICENTER": 9.2257, "MEAN_ANOMALY": 134.6131, "EPHEMERIS_TYPE": 0, "CLASSIFICATION_TYPE": "U", "NORAD_CAT_ID": 32395, "ELEMENT_SET_NO": 999, "REV_AT_EPOCH": 13965, "BSTAR": 0, "MEAN_MOTION_DOT": 5.1e-07, "MEAN_MOTION_DDOT": 0}, "tle": {"line1": "1 32395U 07065C   25342.08416236  .00000051  00000+0  00000+0 0  9990", "line2": "2 32395  64.3236 198.4308 0017747   9.2257 134.6131  2.13100022139656"}}, "geometry": {"type": "Point", "coordinates": [-57.82319060680734, 63.64623913234358]}}, {"type": "Feature", "properties": {"norad_id": 36111, "name": "COSMOS 2456 (730)", "group": "glo-ops", "lat": 51.72790994465842, "lon": -138.9467187319456, "alt_km": 19131.167336857157, "timestamp": "2025-12-09T21:34:11.668668+00:00", "meta": {"OBJECT_NAME": "COSMOS 2456 (730)", "OBJECT_ID": "2009-070A", "EPOCH": "2025-12-09T05:47:54.858624", "MEAN_MOTION": 2.13103359, "ECCENTRICITY": 0.00028383, "INCLINATION": 64.8981, "RA_OF_ASC_NODE": 77.4578, "ARG_OF_PERICENTER": 298.5783, "MEAN_ANOMALY": 37.1692, "EPHEMERIS_TYPE": 0, "CLASSIFICATION_TYPE": "U", "NORAD_CAT_ID": 36111, "ELEMENT_SET_NO": 999, "REV_AT_EPOCH": 12437, "BSTAR": 0, "MEAN_MOTION_DOT": -1.7e-07, "MEAN_MOTION_DDOT": 0}, "tle": {"line1": "1 36111U 09070A   25343.24160716 -.00000017  00000+0  00000+0 0  9999", "line2": "2 36111  64.8981  77.4578 0002838 298.5783  37.1692  2.13103359124373"}}, "geometry": {"type": "Point", "coordinates": [-138.9467187319456, 51.72790994465842]}}, {"type": "Feature", "properties": {"norad_id": 36112, "name": "COSMOS 2457 (733)", "group": "glo-ops", "lat": -57.799539646492384, "lon": -54.65845678986245, "alt_km": 19136.941701250624, "timestamp": "2025-12-09T21:34:11.668680+00:00", "meta": {"OBJECT_NAME": "COSMOS 2457 (733)", "OBJECT_ID": "2009-070B", "EPOCH": "2025-12-08T14:21:11.818944", "MEAN_MOTION": 2.13100771, "ECCENTRICITY": 0.0004866, "INCLINATION": 64.883, "RA_OF_ASC_NODE": 77.3275, "ARG_OF_PERICENTER": 155.8932, "MEAN_ANOMALY": 175.3227, "EPHEMERIS_TYPE": 0, "CLASSIFICATION_TYPE": "U", "NORAD_CAT_ID": 36112, "ELEMENT_SET_NO": 999, "REV_AT_EPOCH": 12436, "BSTAR": 0, "MEAN_MOTION_DOT": -1.5e-07, "MEAN_MOTION_DDOT": 0}, "tle": {"line1": "1 36112U 09070B   25342.59805346 -.00000015  00000+0  00000+0 0  9990", "line2": "2 36112  64.8830  77.3275 0004866 155.8932 175.3227  2.13100771124367"}}, "geometry": {"type": "Point", "coordinates": [-54.65845678986245, -57.799539646492384]}}, {"type": "Feature", "properties": {"norad_id": 36402, "name": "COSMOS 2460 (732)", "group": "glo-ops", "lat": -57.877651701904995, "lon": -172.66479971056356, "alt_km": 19129.301749882212, "timestamp": "2025-12-09T21:34:11.668692+00:00", "meta": {"OBJECT_NAME": "COSMOS 2460 (732)", "OBJECT_ID": "2010-007C", "EPOCH": "2025-12-09T13:46:14.045952", "MEAN_MOTION": 2.13105903, "ECCENTRICITY": 0.00028013, "INCLINATION": 65.5317, "RA_OF_ASC_NODE": 320.8806, "ARG_OF_PERICENTER": 271.9201, "MEAN_ANOMALY": 87.2578, "EPHEMERIS_TYPE": 0, "CLASSIFICATION_TYPE": "U", "NORAD_CAT_ID": 36402, "ELEMENT_SET_NO": 999, "REV_AT_EPOCH": 12268, "BSTAR": 0, "MEAN_MOTION_DOT": -4.9e-07, "MEAN_MOTION_DDOT": 0}, "tle": {"line1": "1 36402U 10007C   25343.57377368 -.00000049  00000+0  00000+0 0  9998", "line2": "2 36402  65.5317 320.8806 0002801 271.9201  87.2578  2.13105903122684"}}, "geometry": {"type": "Point", "coordinates": [-172.66479971056356, -57.877651701904995]}}, {"type": "Feature", "properties": {"norad_id": 37867, "name": "COSMOS 2476 (744)", "group": "glo-ops", "lat": 25.530360246503196, "lon": 92.03541405200339, "alt_km": 19182.305249673223, "timestamp": "2025-12-09T21:34:11.668704+00:00", "meta": {"OBJECT_NAME": "COSMOS 2476 (744)", "OBJECT_ID": "2011-064A", "EPOCH": "2025-12-09T09:41:55.720032", "MEAN_MOTION": 2.13101239, "ECCENTRICITY": 0.0023895, "INCLINATION": 65.1605, "RA_OF_ASC_NODE": 79.2843, "ARG_OF_PERICENTER": 233.5536, "MEAN_ANOMALY": 135.2332, "EPHEMERIS_TYPE": 0, "CLASSIFICATION_TYPE": "U", "NORAD_CAT_ID": 37867, "ELEMENT_SET_NO": 999, "REV_AT_EPOCH": 10972, "BSTAR": 0, "MEAN_MOTION_DOT": -1.4e-07, "MEAN_MOTION_DDOT": 0}, "tle": {"line1": "1 37867U 11064A   25343.40411713 -.00000014  00000+0  00000+0 0  9995", "line2": "2 37867  65.1605  79.2843 0023895 233.5536 135.2332  2.13101239109723"}}, "geometry": {"type": "Point", "coordinates": [92.03541405200339, 25.530360246503196]}}, {"type": "Feature", "properties": {"norad_id": 37868, "name": "COSMOS 2477 (745)", "group": "glo-ops", "lat": -26.19746646528718, "lon": -87.49988545157113, "alt_km": 19084.803532559086, "timestamp": "2025-12-09T21:34:11.668715+00:00", "meta": {"OBJECT_NAME": "COSMOS 2477 (745)", "OBJECT_ID": "2011-064B", "EPOCH": "2025-12-09T06:11:12.657696", "MEAN_MOTION": 2.13102656, "ECCENTRICITY": 0.0021072, "INCLINATION": 65.167, "RA_OF_ASC_NODE": 79.367, "ARG_OF_PERICENTER": 234.1716, "MEAN_ANOMALY": 203.2692, "EPHEMERIS_TYPE": 0, "CLASSIFICATION_TYPE": "U", "NORAD_CAT_ID": 37868, "ELEMENT_SET_NO": 999, "REV_AT_EPOCH": 10971, "BSTAR": 0, "MEAN_MOTION_DOT": -1.4e-07, "MEAN_MOTION_DDOT": 0}, "tle": {"line1": "1 37868U 11064B   25343.25778539 -.00000014  00000+0  00000+0 0  9991", "line2": "2 37868  65.1670  79.3670 0021072 234.1716 203.2692  2.13102656109715"}}, "geometry": {"type": "Point", "coordinates": [-87.49988545157113, -26.19746646528718]}}, {"type": "Feature", "properties": {"norad_id": 37869, "name": "COSMOS 2475 (743)", "group": "glo-ops", "lat": 13.705187035043004, "lon": -107.10066624407739, "alt_km": 19120.827141518785, "timestamp": "2025-12-09T21:34:11.668728+00:00", "meta": {"OBJECT_NAME": "COSMOS 2475 (743)", "OBJECT_ID": "2011-064C", "EPOCH": "2025-12-09T06:02:05.700768", "MEAN_MOTION": 2.13101306, "ECCENTRICITY": 0.0026081, "INCLINATION": 65.1742, "RA_OF_ASC_NODE": 79.3871, "ARG_OF_PERICENTER": 248.2695, "MEAN_ANOMALY": 140.2782, "EPHEMERIS_TYPE": 0, "CLASSIFICATION_TYPE": "U", "NORAD_CAT_ID": 37869, "ELEMENT_SET_NO": 999, "REV_AT_EPOCH": 10972, "BSTAR": 0, "MEAN_MOTION_DOT": -1.3e-07, "MEAN_MOTION_DDOT": 0}, "tle": {"line1": "1 37869U 11064C   25343.25145487 -.00000013  00000+0  00000+0 0  9991", "line2": "2 37869  65.1742  79.3871 0026081 248.2695 140.2782  2.13101306109728"}}, "geometry": {"type": "Point", "coordinates": [-107.10066624407739, 13.705187035043004]}}]}